NORAD_CAT_ID,OBJECT_NAME,OBJECT_TYPE,EPOCH,MEAN_MOTION,ECCENTRICITY,INCLINATION,RA_OF_ASC_NODE,ARG_OF_PERICENTER,MEAN_ANOMALY,BSTAR,MEAN_MOTION_DOT,MEAN_MOTION_DDOT,TLE_LINE0,TLE_LINE1,TLE_LINE2,SEMIMAJOR_AXIS,PERIOD,APOGEE,PERIGEE,DECAYED
55306.0,STARLINK-5295,PAYLOAD,2024-06-26 04:27:25,14.98332898,0.0002654,69.9999,131.6245,256.458,103.6283,3.2973e-05,3.01e-06,0.0,0 STARLINK-5295,1 55306U 23010AP  24178.18571300  .00000301  00000-0  32973-4 0  9994,2 55306  69.9999 131.6245 0002654 256.4580 103.6283 14.98332898 80355,6950.184,96.107,573.894,570.204,0.0
55306.0,STARLINK-5295,PAYLOAD,2024-06-26 06:03:33,14.98333198,0.0002651,69.9999,131.4562,257.0217,103.0646,3.556e-05,3.31e-06,0.0,0 STARLINK-5295,1 55306U 23010AP  24178.25247265  .00000331  00000-0  35560-4 0  9990,2 55306  69.9999 131.4562 0002651 257.0217 103.0646 14.98333198 80683,6950.183,96.107,573.89,570.206,0.0
55306.0,STARLINK-5295,PAYLOAD,2024-06-27 04:29:26,14.98327986,0.000256,70.0002,129.0986,262.7956,97.2912,1.3985e-05,7.4e-07,0.0,0 STARLINK-5295,1 55306U 23010AP  24179.18711727  .00000074  00000-0  13985-4 0  9993,2 55306  70.0002 129.0986 0002560 262.7956  97.2912 14.98327986 80505,6950.199,96.107,573.843,570.285,0.0
55306.0,STARLINK-5295,PAYLOAD,2024-06-27 22:06:55,14.9832952,0.0002823,69.9996,127.2469,268.7623,91.3213,-2.8794e-05,-4.37e-06,0.0,0 STARLINK-5295,1 55306U 23010AP  24179.92147762 -.00000437  00000-0 -28794-4 0  9996,2 55306  69.9996 127.2469 0002823 268.7623  91.3213 14.98329520 80931,6950.194,96.107,574.021,570.097,0.0
55306.0,STARLINK-5295,PAYLOAD,2024-06-28 04:31:27,14.98330173,0.000289,69.9995,126.5725,265.2692,94.8137,1.0675e-05,3.4e-07,0.0,0 STARLINK-5295,1 55306U 23010AP  24180.18851594  .00000034  00000-0  10675-4 0  9991,2 55306  69.9995 126.5725 0002890 265.2692  94.8137 14.98330173 80657,6950.192,96.107,574.066,570.049,0.0
55306.0,STARLINK-5295,PAYLOAD,2024-06-28 14:08:15,14.983362,0.0002885,69.9996,125.5629,266.2617,93.8212,3.3445e-05,3.06e-06,0.0,0 STARLINK-5295,1 55306U 23010AP  24180.58907102  .00000306  00000-0  33445-4 0  9994,2 55306  69.9996 125.5629 0002885 266.2617  93.8212 14.98336200 81035,6950.174,96.107,574.044,570.034,0.0
55306.0,STARLINK-5295,PAYLOAD,2024-06-28 20:32:47,14.98337644,0.0002962,69.9995,124.8896,267.2571,92.8249,8.62e-05,9.36e-06,0.0,0 STARLINK-5295,1 55306U 23010AP  24180.85610836  .00000936  00000-0  86200-4 0  9995,2 55306  69.9995 124.8896 0002962 267.2571  92.8249 14.98337644 80758,6950.169,96.107,574.093,569.976,0.0
55306.0,STARLINK-5295,PAYLOAD,2024-06-28 22:08:55,14.9833807,0.0002961,69.9996,124.7212,267.1842,92.8978,8.9835e-05,9.79e-06,0.0,0 STARLINK-5295,1 55306U 23010AP  24180.92286771  .00000979  00000-0  89835-4 0  9994,2 55306  69.9996 124.7212 0002961 267.1842  92.8978 14.98338070 81089,6950.168,96.106,574.091,569.975,0.0
55306.0,STARLINK-5295,PAYLOAD,2024-06-29 04:33:27,14.98344747,0.0002943,69.9995,124.0486,268.1605,91.9217,0.00016425,1.868e-05,0.0,0 STARLINK-5295,1 55306U 23010AP  24181.18990044  .00001868  00000-0  16425-3 0  9990,2 55306  69.9995 124.0486 0002943 268.1605  91.9217 14.98344747 80805,6950.147,96.106,574.058,569.967,0.0
55306.0,STARLINK-5295,PAYLOAD,2024-06-29 06:09:35,14.98346347,0.0002935,69.9996,123.8803,268.1446,91.9377,0.00018007,2.057e-05,0.0,0 STARLINK-5295,1 55306U 23010AP  24181.25665857  .00002057  00000-0  18007-3 0  9998,2 55306  69.9996 123.8803 0002935 268.1446  91.9377 14.98346347 81132,6950.142,96.106,574.047,569.967,0.0
55306.0,STARLINK-5295,PAYLOAD,2024-06-29 22:10:57,14.98322728,0.0002868,69.9992,122.1973,272.8654,87.2177,-7.7589e-06,-1.86e-06,0.0,0 STARLINK-5295,1 55306U 23010AP  24181.92427892 -.00000186  00000-0 -77589-5 0  9992,2 55306  69.9992 122.1973 0002868 272.8654  87.2177 14.98322728 81230,6950.215,96.107,574.074,570.087,0.0
55306.0,STARLINK-5295,PAYLOAD,2024-06-30 04:35:30,14.9832066,0.000309,69.9989,121.5233,272.3305,87.75,-9.6899e-05,-1.249e-05,0.0,0 STARLINK-5295,1 55306U 23010AP  24182.19132351 -.00001249  00000-0 -96899-4 0  9990,2 55306  69.9989 121.5233 0003090 272.3305  87.7500 14.98320660 80950,6950.222,96.108,574.234,569.939,0.0
55306.0,STARLINK-5295,PAYLOAD,2024-06-30 06:11:38,14.98322063,0.0002952,69.9994,121.3557,270.6734,89.4087,-7.9004e-05,-1.035e-05,0.0,0 STARLINK-5295,1 55306U 23010AP  24182.25808268 -.00001035  00000-0 -79004-4 0  9996,2 55306  69.9994 121.3557 0002952 270.6734  89.4087 14.98322063 81281,6950.217,96.108,574.134,570.031,0.0
55306.0,STARLINK-5295,PAYLOAD,2024-06-30 20:36:50,14.9833484,0.0003001,69.9991,119.8407,270.8166,89.2649,-1.7902e-05,-3.07e-06,0.0,0 STARLINK-5295,1 55306U 23010AP  24182.85891382 -.00000307  00000-0 -17902-4 0  9991,2 55306  69.9991 119.8407 0003001 270.8166  89.2649 14.98334840 81054,6950.178,96.107,574.129,569.957,0.0
55306.0,STARLINK-5295,PAYLOAD,2024-06-30 22:12:58,14.98336371,0.000294,69.9994,119.6731,269.0778,91.0045,2.1872e-06,-6.7e-07,0.0,0 STARLINK-5295,1 55306U 23010AP  24182.92567224 -.00000067  00000-0  21872-5 0  9998,2 55306  69.9994 119.6731 0002940 269.0778  91.0045 14.98336371 81383,6950.173,96.107,574.082,569.995,0.0
55306.0,STARLINK-5295,PAYLOAD,2024-07-01 04:37:29,14.98343655,0.000315,69.9995,118.9997,273.1421,86.9377,9.8627e-05,1.084e-05,0.0,0 STARLINK-5295,1 55306U 23010AP  24183.19270464  .00001084  00000-0  98627-4 0  9995,2 55306  69.9995 118.9997 0003150 273.1421  86.9377 14.98343655 81109,6950.151,96.106,574.205,569.826,0.0
55306.0,STARLINK-5295,PAYLOAD,2024-07-01 12:38:09,14.98346161,0.0003026,69.9991,118.1575,271.2079,88.8733,-2.4549e-07,-9.6e-07,0.0,0 STARLINK-5295,1 55306U 23010AP  24183.52650304 -.00000096  00000-0 -24549-6 0  9995,2 55306  69.9991 118.1575 0003026 271.2079  88.8733 14.98346161 81471,6950.143,96.106,574.111,569.905,0.0
55306.0,STARLINK-5295,PAYLOAD,2024-07-01 20:38:51,14.98324015,0.0002406,70.0007,117.317,266.9024,93.186,0.00020237,2.322e-05,0.0,0 STARLINK-5295,1 55306U 23010AP  24183.86031448  .00002322  00000-0  20237-3 0  9993,2 55306  70.0007 117.3170 0002406 266.9024  93.1860 14.98324015 81201,6950.211,96.107,573.749,570.404,0.0
55306.0,STARLINK-5295,PAYLOAD,2024-07-01 22:14:59,14.98323158,0.0002443,70.0006,117.1487,266.6182,93.4698,0.00018374,2.1e-05,0.0,0 STARLINK-5295,1 55306U 23010AP  24183.92707546  .00002100  00000-0  18374-3 0  9992,2 55306  70.0006 117.1487 0002443 266.6182  93.4698 14.98323158 81537,6950.214,96.107,573.777,570.381,0.0
55306.0,STARLINK-5295,PAYLOAD,2024-07-02 12:40:11,14.98346428,0.0002493,70.0012,115.6328,275.7098,84.3777,-0.00036297,-4.423e-05,0.0,0 STARLINK-5295,1 55306U 23010AP  24184.52791305 -.00004423  00000-0 -36297-3 0  9991,2 55306  70.0012 115.6328 0002493 275.7098  84.3777 14.98346428 81625,6950.142,96.106,573.74,570.274,0.0
55306.0,STARLINK-5295,PAYLOAD,2024-07-02 20:40:52,14.98330658,0.0002717,70.0,114.792,265.4086,94.6762,-4.7836e-05,-6.64e-06,0.0,0 STARLINK-5295,1 55306U 23010AP  24184.86171828 -.00000664  00000-0 -47836-4 0  9995,2 55306  70.0000 114.7920 0002717 265.4086  94.6762 14.98330658 81358,6950.191,96.107,573.944,570.167,0.0
55306.0,STARLINK-5295,PAYLOAD,2024-07-02 22:17:00,14.98330063,0.0002814,70.0002,114.6244,267.0197,93.064,-1.0698e-05,-2.21e-06,0.0,0 STARLINK-5295,1 55306U 23010AP  24184.92847761 -.00000221  00000-0 -10698-4 0  9993,2 55306  70.0002 114.6244 0002814 267.0197  93.0640 14.98330063 81681,6950.193,96.107,574.013,570.102,0.0
55306.0,STARLINK-5295,PAYLOAD,2024-07-03 20:42:53,14.98328451,0.00028,69.9999,112.2658,269.9619,90.1219,0.00011007,1.221e-05,0.0,0 STARLINK-5295,1 55306U 23010AP  24185.86311495  .00001221  00000-0  11007-3 0  9990,2 55306  69.9999 112.2658 0002800 269.9619  90.1219 14.98328451 81500,6950.198,96.107,574.009,570.117,0.0
55306.0,STARLINK-5295,PAYLOAD,2024-07-03 22:19:01,14.98328462,0.0002791,69.9999,112.0975,269.2208,90.8631,0.00010721,1.186e-05,0.0,0 STARLINK-5295,1 55306U 23010AP  24185.92987503  .00001186  00000-0  10721-3 0  9998,2 55306  69.9999 112.0975 0002791 269.2208  90.8631 14.98328462 81839,6950.198,96.107,574.002,570.123,0.0
55306.0,STARLINK-5295,PAYLOAD,2024-07-04 12:44:13,14.98332827,0.0002884,69.9999,110.5827,268.684,91.3989,3.1746e-05,2.86e-06,0.0,0 STARLINK-5295,1 55306U 23010AP  24186.53071285  .00000286  00000-0  31746-4 0  9998,2 55306  69.9999 110.5827 0002884 268.6840  91.3989 14.98332827 81928,6950.184,96.107,574.054,570.045,0.0
55306.0,STARLINK-5295,PAYLOAD,2024-07-04 20:44:54,14.98328211,0.0002911,69.9997,109.7411,268.6521,91.4304,0.00011272,1.252e-05,0.0,0 STARLINK-5295,1 55306U 23010AP  24186.86451434  .00001252  00000-0  11272-3 0  9997,2 55306  69.9997 109.7411 0002911 268.6521  91.4304 14.98328211 81656,6950.198,96.107,574.087,570.04,0.0
55306.0,STARLINK-5295,PAYLOAD,2024-07-04 22:21:02,14.98328452,0.0002913,69.9997,109.5728,268.6477,91.4348,0.00011346,1.261e-05,0.0,0 STARLINK-5295,1 55306U 23010AP  24186.93127429  .00001261  00000-0  11346-3 0  9991,2 55306  69.9997 109.5728 0002913 268.6477  91.4348 14.98328452 81988,6950.198,96.107,574.087,570.038,0.0
55306.0,STARLINK-5295,PAYLOAD,2024-07-05 04:45:33,14.98336343,0.0002928,69.9999,108.9003,269.6753,90.407,0.00013183,1.481e-05,0.0,0 STARLINK-5295,1 55306U 23010AP  24187.19830856  .00001481  00000-0  13183-3 0  9990,2 55306  69.9999 108.9003 0002928 269.6753  90.4070 14.98336343 81702,6950.173,96.107,574.073,570.003,0.0
55306.0,STARLINK-5295,PAYLOAD,2024-07-05 12:46:14,14.98329139,0.0002767,70.0002,108.0582,268.3506,91.7336,9.1225e-05,9.96e-06,0.0,0 STARLINK-5295,1 55306U 23010AP  24187.53211402  .00000996  00000-0  91225-4 0  9992,2 55306  70.0002 108.0582 0002767 268.3506  91.7336 14.98329139 81755,6950.196,96.107,573.984,570.137,0.0
55306.0,STARLINK-5295,PAYLOAD,2024-07-05 22:23:02,14.9834317,0.0002774,70.0,107.0484,272.1102,87.974,-0.00017142,-2.138e-05,0.0,0 STARLINK-5295,1 55306U 23010AP  24187.93266938 -.00002138  00000-0 -17142-3 0  9997,2 55306  70.0000 107.0484 0002774 272.1102  87.9740 14.98343170 82136,6950.152,96.106,573.945,570.089,0.0
